NORAD_CAT_ID,OBJECT_NAME,OBJECT_TYPE,EPOCH,MEAN_MOTION,ECCENTRICITY,INCLINATION,RA_OF_ASC_NODE,ARG_OF_PERICENTER,MEAN_ANOMALY,BSTAR,MEAN_MOTION_DOT,MEAN_MOTION_DDOT,TLE_LINE0,TLE_LINE1,TLE_LINE2,SEMIMAJOR_AXIS,PERIOD,APOGEE,PERIGEE,DECAYED
49435.0,STARLINK-3117,PAYLOAD,2023-08-03 05:14:37,15.08849228,0.0001229,53.2166,151.461,87.3087,272.8046,9.1174e-05,1.164e-05,0.0,0 STARLINK-3117,1 49435U 21104AD  23215.21849159  .00001164  00000-0  91174-4 0  9993,2 49435  53.2166 151.4610 0001229  87.3087 272.8046 15.08849228 96657,6917.852,95.437,540.567,538.867,0.0
49435.0,STARLINK-3117,PAYLOAD,2023-08-04 01:54:40,15.08822979,0.0001133,53.2165,147.5956,91.6905,268.4217,-8.3189e-05,-1.611e-05,0.0,0 STARLINK-3117,1 49435U 21104AD  23216.07964054 -.00001611  00000-0 -83189-4 0  9996,2 49435  53.2165 147.5956 0001133  91.6905 268.4217 15.08822979 96785,6917.932,95.439,540.581,539.014,0.0
49435.0,STARLINK-3117,PAYLOAD,2023-08-05 01:45:25,15.08858262,0.0001031,53.2162,143.1368,104.0604,256.0503,0.00012125,1.643e-05,0.0,0 STARLINK-3117,1 49435U 21104AD  23217.07321474  .00001643  00000-0  12125-3 0  9994,2 49435  53.2162 143.1368 0001031 104.0604 256.0503 15.08858262 96935,6917.825,95.436,540.403,538.976,0.0
49435.0,STARLINK-3117,PAYLOAD,2023-08-06 04:46:58,15.08860204,8.95e-05,53.216,138.0804,106.4019,253.7071,0.00035776,5.414e-05,0.0,0 STARLINK-3117,1 49435U 21104AD  23218.19928348  .00005414  00000-0  35776-3 0  9998,2 49435  53.2160 138.0804 0000895 106.4019 253.7071 15.08860204 97107,6917.819,95.436,540.303,539.064,0.0
49435.0,STARLINK-3117,PAYLOAD,2023-08-07 03:02:25,15.08832682,8.24e-05,53.2164,133.918,83.6701,276.4385,-0.00020714,-3.582e-05,0.0,0 STARLINK-3117,1 49435U 21104AD  23219.12667918 -.00003582  00000-0 -20714-3 0  9997,2 49435  53.2164 133.9180 0000824  83.6701 276.4385 15.08832682 97242,6917.903,95.438,540.338,539.198,0.0
49435.0,STARLINK-3117,PAYLOAD,2023-08-07 10:59:20,15.08838006,8.36e-05,53.2165,132.4312,81.0404,279.0683,-0.00014554,-2.603e-05,0.0,0 STARLINK-3117,1 49435U 21104AD  23219.45787459 -.00002603  00000-0 -14554-3 0  9994,2 49435  53.2165 132.4312 0000836  81.0404 279.0683 15.08838006 97290,6917.886,95.438,540.33,539.173,0.0
49435.0,STARLINK-3117,PAYLOAD,2023-08-08 01:17:47,15.08854803,7.96e-05,53.216,129.7556,81.9701,278.1381,-4.8877e-05,-1.066e-05,0.0,0 STARLINK-3117,1 49435U 21104AD  23220.05402055 -.00001066  00000-0 -48877-4 0  9996,2 49435  53.2160 129.7556 0000796  81.9701 278.1381 15.08854803 97386,6917.835,95.437,540.251,539.149,0.0
49435.0,STARLINK-3117,PAYLOAD,2023-08-08 17:11:39,15.08838825,9.65e-05,53.2156,126.7814,67.3927,292.7167,0.00029438,4.4e-05,0.0,0 STARLINK-3117,1 49435U 21104AD  23220.71642855  .00004400  00000-0  29438-3 0  9997,2 49435  53.2156 126.7814 0000965  67.3927 292.7167 15.08838825 97482,6917.884,95.438,540.417,539.081,0.0
49435.0,STARLINK-3117,PAYLOAD,2023-08-09 02:43:57,15.08848542,0.0001061,53.216,124.9969,67.8918,292.2187,0.00037064,5.617e-05,0.0,0 STARLINK-3117,1 49435U 21104AD  23221.11385943  .00005617  00000-0  37064-3 0  9999,2 49435  53.2160 124.9969 0001061  67.8918 292.2187 15.08848542 97542,6917.854,95.437,540.453,538.985,0.0
49435.0,STARLINK-3117,PAYLOAD,2023-08-09 10:40:53,15.08841622,7.1e-05,53.2151,123.5104,81.7447,278.3626,0.0001537,2.159e-05,0.0,0 STARLINK-3117,1 49435U 21104AD  23221.44506388  .00002159  00000-0  15370-3 0  9997,2 49435  53.2151 123.5104 0000710  81.7447 278.3626 15.08841622 97590,6917.875,95.437,540.232,539.249,0.0
49435.0,STARLINK-3117,PAYLOAD,2023-08-11 02:25:31,15.08857373,0.0001151,53.2143,116.0761,99.8574,260.2549,-0.00033203,-5.571e-05,0.0,0 STARLINK-3117,1 49435U 21104AD  23223.10105408 -.00005571  00000-0 -33203-3 0  9998,2 49435  53.2143 116.0761 0001151  99.8574 260.2549 15.08857373 97840,6917.827,95.436,540.489,538.896,0.0
49435.0,STARLINK-3117,PAYLOAD,2023-08-11 10:22:27,15.08834052,0.0001142,53.2157,114.5897,81.672,278.4402,4.3379e-05,4.03e-06,0.0,0 STARLINK-3117,1 49435U 21104AD  23223.43226850  .00000403  00000-0  43379-4 0  9992,2 49435  53.2157 114.5897 0001142  81.6720 278.4402 15.08834052 97893,6917.899,95.438,540.554,538.974,0.0
49435.0,STARLINK-3117,PAYLOAD,2023-08-12 16:34:47,15.0884132,8.77e-05,53.216,108.9389,87.0308,273.0785,8.6062e-05,1.082e-05,0.0,0 STARLINK-3117,1 49435U 21104AD  23224.69082710  .00001082  00000-0  86062-4 0  9996,2 49435  53.2160 108.9389 0000877  87.0308 273.0785 15.08841320 98089,6917.876,95.437,540.348,539.135,0.0
49435.0,STARLINK-3117,PAYLOAD,2023-08-13 02:07:05,15.08845363,0.0001113,53.2157,107.1547,85.0018,275.1102,0.00018551,2.666e-05,0.0,0 STARLINK-3117,1 49435U 21104AD  23225.08826176  .00002666  00000-0  18551-3 0  9998,2 49435  53.2157 107.1547 0001113  85.0018 275.1102 15.08845363 98146,6917.864,95.437,540.499,538.959,0.0
49435.0,STARLINK-3117,PAYLOAD,2023-08-14 00:22:30,15.08841356,9.48e-05,53.2162,102.9912,86.8925,273.2176,6.1691e-05,6.94e-06,0.0,0 STARLINK-3117,1 49435U 21104AD  23226.01562863  .00000694  00000-0  61691-4 0  9995,2 49435  53.2162 102.9912 0000948  86.8925 273.2176 15.08841356 98285,6917.876,95.437,540.397,539.085,0.0
49435.0,STARLINK-3117,PAYLOAD,2023-08-15 01:48:39,15.08867879,0.0001071,53.2164,98.2333,100.0011,260.1102,-0.00029568,-4.994e-05,0.0,0 STARLINK-3117,1 49435U 21104AD  23227.07545694 -.00004994  00000-0 -29568-3 0  9990,2 49435  53.2164  98.2333 0001071 100.0011 260.1102 15.08867879 98444,6917.795,95.436,540.401,538.919,0.0
49435.0,STARLINK-3117,PAYLOAD,2023-08-16 00:04:04,15.08837367,0.0001054,53.217,94.0705,85.8311,274.2802,9.29e-05,1.191e-05,0.0,0 STARLINK-3117,1 49435U 21104AD  23228.00283285  .00001191  00000-0  92900-4 0  9994,2 49435  53.2170  94.0705 0001054  85.8311 274.2802 15.08837367 98589,6917.888,95.438,540.483,539.024,0.0
49435.0,STARLINK-3117,PAYLOAD,2023-08-17 01:30:14,15.08854467,0.0001006,53.2161,89.3118,90.24,269.8707,-0.00010636,-1.981e-05,0.0,0 STARLINK-3117,1 49435U 21104AD  23229.06266802 -.00001981  00000-0 -10636-3 0  9991,2 49435  53.2161  89.3118 0001006  90.2400 269.8707 15.08854467 98742,6917.836,95.437,540.397,539.005,0.0
49435.0,STARLINK-3117,PAYLOAD,2023-08-17 20:34:52,15.08844459,0.0001099,53.2157,85.7437,87.5661,272.5457,0.00012989,1.78e-05,0.0,0 STARLINK-3117,1 49435U 21104AD  23229.85754783  .00001780  00000-0  12989-3 0  9996,2 49435  53.2157  85.7437 0001099  87.5661 272.5457 15.08844459 98867,6917.867,95.437,540.492,538.971,0.0
49435.0,STARLINK-3117,PAYLOAD,2023-08-18 20:25:40,15.08837856,0.0001374,53.2164,81.2841,80.3434,279.7713,-2.9404e-05,-7.56e-06,0.0,0 STARLINK-3117,1 49435U 21104AD  23230.85115796 -.00000756  00000-0 -29404-4 0  9998,2 49435  53.2164  81.2841 0001374  80.3434 279.7713 15.08837856 99015,6917.887,95.438,540.702,538.801,0.0
49435.0,STARLINK-3117,PAYLOAD,2023-08-19 23:27:13,15.08838085,0.0001445,53.2153,76.2309,74.2818,285.8333,5.4963e-05,5.87e-06,0.0,0 STARLINK-3117,1 49435U 21104AD  23231.97723677  .00000587  00000-0  54963-4 0  9993,2 49435  53.2153  76.2309 0001445  74.2818 285.8333 15.08838085 99182,6917.886,95.438,540.751,538.752,0.0
49435.0,STARLINK-3117,PAYLOAD,2023-08-20 23:17:59,15.08844616,0.0001092,53.2154,71.7665,89.3972,270.7145,0.00021378,3.117e-05,0.0,0 STARLINK-3117,1 49435U 21104AD  23232.97082889  .00003117  00000-0  21378-3 0  9992,2 49435  53.2154  71.7665 0001092  89.3972 270.7145 15.08844616 99332,6917.866,95.437,540.487,538.976,0.0
49435.0,STARLINK-3117,PAYLOAD,2023-08-21 18:22:37,15.08839886,9.46e-05,53.216,68.1958,94.4091,265.7009,6.3145e-05,7.17e-06,0.0,0 STARLINK-3117,1 49435U 21104AD  23233.76571695  .00000717  00000-0  63145-4 0  9990,2 49435  53.2160  68.1958 0000946  94.4091 265.7009 15.08839886 99459,6917.881,95.438,540.4,539.091,0.0
49435.0,STARLINK-3117,PAYLOAD,2023-08-23 11:42:40,15.0882577,0.0001139,53.2184,60.4657,91.9066,268.2057,0.00021047,3.062e-05,0.0,0 STARLINK-3117,1 49435U 21104AD  23235.48796813  .00003062  00000-0  21047-3 0  9992,2 49435  53.2184  60.4657 0001139  91.9066 268.2057 15.08825770 99712,6917.924,95.438,540.577,539.001,0.0
49435.0,STARLINK-3117,PAYLOAD,2023-08-24 13:08:50,15.08836839,0.000108,53.2166,55.7097,87.6072,272.5044,0.00010259,1.345e-05,0.0,0 STARLINK-3117,1 49435U 21104AD  23236.54780333  .00001345  00000-0  10259-3 0  9995,2 49435  53.2166  55.7097 0001080  87.6072 272.5044 15.08836839 98790,6917.89,95.438,540.502,539.008,0.0
49435.0,STARLINK-3117,PAYLOAD,2023-08-25 11:24:13,15.0884289,0.0001102,53.2169,51.5463,85.062,275.0498,8.1974e-05,1.017e-05,0.0,0 STARLINK-3117,1 49435U 21104AD  23237.47516114  .00001017  00000-0  81974-4 0  9991,2 49435  53.2169  51.5463 0001102  85.0620 275.0498 15.08842890 98931,6917.872,95.437,540.499,538.974,0.0
49435.0,STARLINK-3117,PAYLOAD,2023-08-25 19:21:09,15.08844781,0.0001169,53.2172,50.0595,82.0681,278.0444,9.1457e-05,1.168e-05,0.0,0 STARLINK-3117,1 49435U 21104AD  23237.80635967  .00001168  00000-0  91457-4 0  9990,2 49435  53.2172  50.0595 0001169  82.0681 278.0444 15.08844781100065,6917.866,95.437,540.539,538.922,0.0
49435.0,STARLINK-3117,PAYLOAD,2023-08-26 11:15:01,15.08839424,0.0001234,53.2174,47.0863,80.0637,280.0495,5.2494e-05,5.48e-06,0.0,0 STARLINK-3117,1 49435U 21104AD  23238.46876423  .00000548  00000-0  52494-4 0  9996,2 49435  53.2174  47.0863 0001234  80.0637 280.0495 15.08839424100161,6917.882,95.438,540.601,538.893,0.0
49435.0,STARLINK-3117,PAYLOAD,2023-08-26 17:36:33,15.08842838,0.0001248,53.2177,45.8972,84.8347,275.2787,7.1567e-05,8.51e-06,0.0,0 STARLINK-3117,1 49435U 21104AD  23238.73372109  .00000851  00000-0  71567-4 0  9997,2 49435  53.2177  45.8972 0001248  84.8347 275.2787 15.08842838 99122,6917.872,95.437,540.6,538.873,0.0
49435.0,STARLINK-3117,PAYLOAD,2023-08-27 17:27:20,15.08842952,0.0001217,53.2179,41.4373,87.445,272.6681,7.895e-05,9.69e-06,0.0,0 STARLINK-3117,1 49435U 21104AD  23239.72731974  .00000969  00000-0  78950-4 0  9999,2 49435  53.2179  41.4373 0001217  87.4450 272.6681 15.08842952100350,6917.871,95.437,540.578,538.894,0.0
